FLOCK 4G-2              
1 62661U 25009BE  26068.66207492  .00013752  00000+0  51068-3 0  9995
2 62661  97.4044 151.2221 0003181 329.2677  30.8376 15.27675260121321
STARLINK-35693          
1 66490U 25263F   26068.11325060  .00026761  00000+0  97874-3 0  9992
2 66490  43.0037 353.7070 0001521 279.7392  80.3287 15.27570779 18813
